{
  "norad_id": 64942,
  "name": "STARLINK-34742",
  "history": [
    {
      "epoch": "2026-03-28T20:35:41.413344Z",
      "apogee_km": 551.0128275157776,
      "perigee_km": 547.9715982913121,
      "latitude_deg": -2.4476730426839656e-05,
      "longitude_deg": 177.82991183602857,
      "height_km": 552.2864540447581,
      "semi_major_axis_km": 6927.629212903545,
      "eccentricity": 0.0002195,
      "inclination_deg": 97.6022,
      "raan_deg": 313.025,
      "arg_perigee_deg": 79.8733,
      "mean_anomaly_deg": 280.2741,
      "mean_motion_rev_day": 15.05656175
    },
    {
      "epoch": "2026-03-29T04:34:10.942752Z",
      "apogee_km": 550.5256319528162,
      "perigee_km": 548.3780794075565,
      "latitude_deg": 7.009745864488133e-05,
      "longitude_deg": 58.20674388034503,
      "height_km": 552.3186069339395,
      "semi_major_axis_km": 6927.5888556801865,
      "eccentricity": 0.000155,
      "inclination_deg": 97.6023,
      "raan_deg": 313.3524,
      "arg_perigee_deg": 79.484,
      "mean_anomaly_deg": 280.6562,
      "mean_motion_rev_day": 15.05669332
    }
  ]
}